[{"OBJECT_NAME":"STARLINK-5695","OBJECT_ID":"2023-015AN","EPOCH":"2026-03-09T22:00:01.999584","MEAN_MOTION":15.12778701,"ECCENTRICITY":0.0001487,"INCLINATION":42.9994,"RA_OF_ASC_NODE":337.4442,"ARG_OF_PERICENTER":225.7062,"MEAN_ANOMALY":61.9629,"EPHEMERIS_TYPE":0,"CLASSIFICATION_TYPE":"U","NORAD_CAT_ID":55485,"ELEMENT_SET_NO":999,"REV_AT_EPOCH":577,"BSTAR":0.00099175492,"MEAN_MOTION_DOT":0.00017529,"MEAN_MOTION_DDOT":0},{"OBJECT_NAME":"FENGYUN 1C DEB","OBJECT_ID":"1999-025DWK","EPOCH":"2026-03-04T22:59:43.178496","MEAN_MOTION":14.75372926,"ECCENTRICITY":0.0170684,"INCLINATION":99.0756,"RA_OF_ASC_NODE":108.4567,"ARG_OF_PERICENTER":229.4091,"MEAN_ANOMALY":129.2157,"EPHEMERIS_TYPE":0,"CLASSIFICATION_TYPE":"U","NORAD_CAT_ID":36258,"ELEMENT_SET_NO":999,"REV_AT_EPOCH":92034,"BSTAR":0.000371885,"MEAN_MOTION_DOT":3.121e-5,"MEAN_MOTION_DDOT":0}]
